0 COSMOS 1054
1 11131U 78109D   13281.64606799 -.00000027  00000-0 -73711-4 0  5400
2 11131 074.0202 017.4973 0026549 130.8759 333.5997 12.49246152589124
0 COSMOS 1054
1 11131U 78109D   13283.89351953 -.00000029  00000-0 -86593-4 0  5413
2 11131 074.0204 014.5129 0026517 127.4340 001.1031 12.49246140589405
0 COSMOS 1054
1 11131U 78109D   13286.19255133  .00000002  00000-0  11638-3 0  5429
2 11131 074.0203 011.4601 0026501 123.9203 260.5730 12.49245949589691
0 COSMOS 1054
1 11131U 78109D   13288.19522280  .00000004  00000-0  13306-3 0  5438
2 11131 074.0200 008.8010 0026448 120.8648 267.2097 12.49245767589947
0 COSMOS 1054
1 11131U 78109D   13290.53457001  .00000003  00000-0  12596-3 0  5447
2 11131 074.0196 005.6947 0026384 117.2835 347.9938 12.49245892590235
0 COSMOS 1054
1 11131U 78109D   13292.63043433  .00000002  00000-0  12020-3 0  5452
2 11131 074.0192 002.9114 0026408 114.0522 053.7820 12.49246257590498
0 COSMOS 1054
1 11131U 78109D   13294.86249829 -.00000027  00000-0 -76120-4 0  5468
2 11131 074.0190 359.9473 0026422 110.6431 012.0734 12.49246327590777
